[{"OBJECT_NAME":"KHALIFASAT","OBJECT_ID":"2018-084F","EPOCH":"2026-03-09T22:37:07.705056","MEAN_MOTION":15.0097364,"ECCENTRICITY":0.00062701,"INCLINATION":98.0864,"RA_OF_ASC_NODE":247.4233,"ARG_OF_PERICENTER":83.8573,"MEAN_ANOMALY":276.3364,"EPHEMERIS_TYPE":0,"CLASSIFICATION_TYPE":"U","NORAD_CAT_ID":43676,"ELEMENT_SET_NO":999,"REV_AT_EPOCH":40088,"BSTAR":0.00043724412,"MEAN_MOTION_DOT":5.516e-5,"MEAN_MOTION_DDOT":0},{"OBJECT_NAME":"STARLINK-5300","OBJECT_ID":"2023-021BA","EPOCH":"2026-03-09T14:26:37.309344","MEAN_MOTION":14.98354952,"ECCENTRICITY":0.000317,"INCLINATION":70.0014,"RA_OF_ASC_NODE":144.7179,"ARG_OF_PERICENTER":271.1144,"MEAN_ANOMALY":88.9652,"EPHEMERIS_TYPE":0,"CLASSIFICATION_TYPE":"U","NORAD_CAT_ID":55676,"ELEMENT_SET_NO":999,"REV_AT_EPOCH":16976,"BSTAR":0.00058231,"MEAN_MOTION_DOT":6.866e-5,"MEAN_MOTION_DDOT":0}]
